{
  "type": "FeatureCollection",
  "features": [
    {
      "type": "Feature",
      "properties": {
        "norad_id": 40938,
        "name": "BEIDOU-3S IGSO-2S (C56)",
        "group": "beidou",
        "lat": -23.37747502502902,
        "lon": 102.54053953221766,
        "alt_km": 35553.83990521974,
        "timestamp": "2025-12-22T18:58:53.699849+00:00",
        "meta_object_name": "BEIDOU-3S IGSO-2S (C56)",
        "meta_object_id": "2015-053A",
        "meta_epoch": "2025-12-21T17:04:25.482720",
        "meta_mean_motion": 1.00268185,
        "meta_eccentricity": 0.00606025,
        "meta_inclination": 49.4967,
        "meta_ra_of_asc_node": 260.9003,
        "meta_arg_of_pericenter": 188.6932,
        "meta_mean_anomaly": 352.8862,
        "meta_ephemeris_type": 0,
        "meta_classification_type": "U",
        "meta_norad_cat_id": 40938,
        "meta_element_set_no": 999,
        "meta_rev_at_epoch": 3757,
        "meta_bstar": 0,
        "meta_mean_motion_dot": -1.05e-06,
        "meta_mean_motion_ddot": 0,
        "tle_line1": "1 40938U 15053A   25355.71140605 -.00000105  00000+0  00000+0 0  9997",
        "tle_line2": "2 40938  49.4967 260.9003 0060602 188.6932 352.8862  1.00268185 37573"
      },
      "geometry": {
        "type": "Point",
        "coordinates": [
          102.54053953221766,
          -23.37747502502902
        ]
      }
    },
    {
      "type": "Feature",
      "properties": {
        "norad_id": 41434,
        "name": "BEIDOU-2 IGSO-6 (C13)",
        "group": "beidou",
        "lat": 54.30899473010599,
        "lon": 93.39925494004798,
        "alt_km": 36018.395986674615,
        "timestamp": "2025-12-22T18:58:53.699863+00:00",
        "meta_object_name": "BEIDOU-2 IGSO-6 (C13)",
        "meta_object_id": "2016-021A",
        "meta_epoch": "2025-12-18T14:33:38.837664",
        "meta_mean_motion": 1.00292299,
        "meta_eccentricity": 0.00610054,
        "meta_inclination": 59.9732,
        "meta_ra_of_asc_node": 39.8392,
        "meta_arg_of_pericenter": 230.2031,
        "meta_mean_anomaly": 129.1398,
        "meta_ephemeris_type": 0,
        "meta_classification_type": "U",
        "meta_norad_cat_id": 41434,
        "meta_element_set_no": 999,
        "meta_rev_at_epoch": 3566,
        "meta_bstar": 0,
        "meta_mean_motion_dot": -1.41e-06,
        "meta_mean_motion_ddot": 0,
        "tle_line1": "1 41434U 16021A   25352.60669951 -.00000141  00000+0  00000+0 0  9990",
        "tle_line2": "2 41434  59.9732  39.8392 0061005 230.2031 129.1398  1.00292299 35667"
      },
      "geometry": {
        "type": "Point",
        "coordinates": [
          93.39925494004798,
          54.30899473010599
        ]
      }
    },
    {
      "type": "Feature",
      "properties": {
        "norad_id": 41586,
        "name": "BEIDOU-2 G7 (C03)",
        "group": "beidou",
        "lat": 1.548334202561124,
        "lon": 126.79442574889353,
        "alt_km": 35774.03565136879,
        "timestamp": "2025-12-22T18:58:53.699879+00:00",
        "meta_object_name": "BEIDOU-2 G7 (C03)",
        "meta_object_id": "2016-037A",
        "meta_epoch": "2025-12-19T15:57:04.317984",
        "meta_mean_motion": 1.00271972,
        "meta_eccentricity": 0.0005143,
        "meta_inclination": 1.7733,
        "meta_ra_of_asc_node": 67.8469,
        "meta_arg_of_pericenter": 2.9481,
        "meta_mean_anomaly": 7.4377,
        "meta_ephemeris_type": 0,
        "meta_classification_type": "U",
        "meta_norad_cat_id": 41586,
        "meta_element_set_no": 999,
        "meta_rev_at_epoch": 509,
        "meta_bstar": 0,
        "meta_mean_motion_dot": -3.3e-06,
        "meta_mean_motion_ddot": 0,
        "tle_line1": "1 41586U 16037A   25353.66463331 -.00000330  00000+0  00000+0 0  9996",
        "tle_line2": "2 41586   1.7733  67.8469 0005143   2.9481   7.4377  1.00271972  5095"
      },
      "geometry": {
        "type": "Point",
        "coordinates": [
          126.79442574889353,
          1.548334202561124
        ]
      }
    },
    {
      "type": "Feature",
      "properties": {
        "norad_id": 43001,
        "name": "BEIDOU-3 M1 (C19)",
        "group": "beidou",
        "lat": -26.059664892194668,
        "lon": -92.23426039393712,
        "alt_km": 21531.686849569585,
        "timestamp": "2025-12-22T18:58:53.699891+00:00",
        "meta_object_name": "BEIDOU-3 M1 (C19)",
        "meta_object_id": "2017-069A",
        "meta_epoch": "2025-12-21T09:37:16.890816",
        "meta_mean_motion": 1.86231333,
        "meta_eccentricity": 0.00096297,
        "meta_inclination": 56.5338,
        "meta_ra_of_asc_node": 68.9479,
        "meta_arg_of_pericenter": 302.2645,
        "meta_mean_anomaly": 57.6886,
        "meta_ephemeris_type": 0,
        "meta_classification_type": "U",
        "meta_norad_cat_id": 43001,
        "meta_element_set_no": 999,
        "meta_rev_at_epoch": 5529,
        "meta_bstar": 0,
        "meta_mean_motion_dot": -3.5e-07,
        "meta_mean_motion_ddot": 0,
        "tle_line1": "1 43001U 17069A   25355.40088994 -.00000035  00000+0  00000+0 0  9990",
        "tle_line2": "2 43001  56.5338  68.9479 0009629 302.2645  57.6886  1.86231333 55292"
      },
      "geometry": {
        "type": "Point",
        "coordinates": [
          -92.23426039393712,
          -26.059664892194668
        ]
      }
    },
    {
      "type": "Feature",
      "properties": {
        "norad_id": 43002,
        "name": "BEIDOU-3 M2 (C20)",
        "group": "beidou",
        "lat": -52.99856585692801,
        "lon": -49.82266855184515,
        "alt_km": 21529.388544220157,
        "timestamp": "2025-12-22T18:58:53.699902+00:00",
        "meta_object_name": "BEIDOU-3 M2 (C20)",
        "meta_object_id": "2017-069B",
        "meta_epoch": "2025-12-21T08:08:32.718912",
        "meta_mean_motion": 1.86231017,
        "meta_eccentricity": 0.00066324,
        "meta_inclination": 56.5336,
        "meta_ra_of_asc_node": 68.9856,
        "meta_arg_of_pericenter": 329.1599,
        "meta_mean_anomaly": 30.8471,
        "meta_ephemeris_type": 0,
        "meta_classification_type": "U",
        "meta_norad_cat_id": 43002,
        "meta_element_set_no": 999,
        "meta_rev_at_epoch": 5528,
        "meta_bstar": 0,
        "meta_mean_motion_dot": -3.5e-07,
        "meta_mean_motion_ddot": 0,
        "tle_line1": "1 43002U 17069B   25355.33926758 -.00000035  00000+0  00000+0 0  9992",
        "tle_line2": "2 43002  56.5336  68.9856 0006632 329.1599  30.8471  1.86231017 55288"
      },
      "geometry": {
        "type": "Point",
        "coordinates": [
          -49.82266855184515,
          -52.99856585692801
        ]
      }
    },
    {
      "type": "Feature",
      "properties": {
        "norad_id": 43107,
        "name": "BEIDOU-3 M7 (C27)",
        "group": "beidou",
        "lat": 47.88820179100806,
        "lon": 0.5484258810360885,
        "alt_km": 21513.884569515634,
        "timestamp": "2025-12-22T18:58:53.699914+00:00",
        "meta_object_name": "BEIDOU-3 M7 (C27)",
        "meta_object_id": "2018-003A",
        "meta_epoch": "2025-12-22T03:44:43.450080",
        "meta_mean_motion": 1.86232636,
        "meta_eccentricity": 0.00029753,
        "meta_inclination": 54.4882,
        "meta_ra_of_asc_node": 308.4877,
        "meta_arg_of_pericenter": 66.7301,
        "meta_mean_anomaly": 293.2999,
        "meta_ephemeris_type": 0,
        "meta_classification_type": "U",
        "meta_norad_cat_id": 43107,
        "meta_element_set_no": 999,
        "meta_rev_at_epoch": 5405,
        "meta_bstar": 0,
        "meta_mean_motion_dot": -5.9e-07,
        "meta_mean_motion_ddot": 0,
        "tle_line1": "1 43107U 18003A   25356.15605845 -.00000059  00000+0  00000+0 0  9995",
        "tle_line2": "2 43107  54.4882 308.4877 0002975  66.7301 293.2999  1.86232636 54055"
      },
      "geometry": {
        "type": "Point",
        "coordinates": [
          0.5484258810360885,
          47.88820179100806
        ]
      }
    },
    {
      "type": "Feature",
      "properties": {
        "norad_id": 43108,
        "name": "BEIDOU-3 M8 (C28)",
        "group": "beidou",
        "lat": 52.63278264041278,
        "lon": 59.30580783238122,
        "alt_km": 21534.671544309324,
        "timestamp": "2025-12-22T18:58:53.699925+00:00",
        "meta_object_name": "BEIDOU-3 M8 (C28)",
        "meta_object_id": "2018-003B",
        "meta_epoch": "2025-12-21T00:39:03.607776",
        "meta_mean_motion": 1.86231132,
        "meta_eccentricity": 0.00046009,
        "meta_inclination": 54.4823,
        "meta_ra_of_asc_node": 308.5094,
        "meta_arg_of_pericenter": 278.1656,
        "meta_mean_anomaly": 81.7767,
        "meta_ephemeris_type": 0,
        "meta_classification_type": "U",
        "meta_norad_cat_id": 43108,
        "meta_element_set_no": 999,
        "meta_rev_at_epoch": 5404,
        "meta_bstar": 0,
        "meta_mean_motion_dot": -6.6e-07,
        "meta_mean_motion_ddot": 0,
        "tle_line1": "1 43108U 18003B   25355.02712509 -.00000066  00000+0  00000+0 0  9995",
        "tle_line2": "2 43108  54.4823 308.5094 0004600 278.1656  81.7767  1.86231132 54044"
      },
      "geometry": {
        "type": "Point",
        "coordinates": [
          59.30580783238122,
          52.63278264041278
        ]
      }
    }
  ]
}